OBJECT_NAME,OBJECT_ID,EPOCH,MEAN_MOTION,ECCENTRICITY,INCLINATION,RA_OF_ASC_NODE,ARG_OF_PERICENTER,MEAN_ANOMALY,EPHEMERIS_TYPE,CLASSIFICATION_TYPE,NORAD_CAT_ID,ELEMENT_SET_NO,REV_AT_EPOCH,BSTAR,MEAN_MOTION_DOT,MEAN_MOTION_DDOT
COSMO-SKYMED 1,2007-023A,2026-07-17T03:26:38.102784,14.97225365,.0001589,97.8848,30.2529,102.0614,258.0785,0,U,31598,999,3427,.13468E-3,.1498E-4,0
COSMOS 2428,2007-029A,2026-07-16T15:58:24.915360,14.12935360,.0007227,70.9382,292.5844,78.2595,281.9336,0,U,31792,999,98231,.1686E-3,.266E-5,0
SL-16 R/B,2007-029B,2026-07-17T05:15:15.221088,14.14852788,.0001922,70.9743,260.0986,256.8892,120.3274,0,U,31793,999,98369,.15546E-3,.252E-5,0
KORONAS-FOTON,2009-003A,2026-07-16T21:59:20.861952,15.46326310,.0012032,82.4312,141.2347,57.1646,303.0759,0,U,33504,999,96569,.15843E-3,.7873E-4,0
CZ-2C R/B,2011-030B,2026-07-16T21:27:50.473152,14.81534149,.0050748,97.8670,152.7487,290.4727,134.1137,0,U,37731,999,80922,.62443E-4,.445E-5,0
H-2A R/B,2012-025E,2026-07-16T22:12:15.196032,14.95839807,.0042579,98.4846,175.5285,249.2386,110.4268,0,U,38341,999,76753,.57508E-4,.582E-5,0
SHIJIAN-16 (SJ-16),2013-057A,2026-07-17T04:47:55.517568,14.92676604,.0015695,74.9745,299.8371,159.9769,200.2039,0,U,39358,999,69082,.11543E-3,.1164E-4,0
SL-4 R/B,2014-021B,2026-07-17T03:06:54.141120,15.42505999,.0089584,51.6063,64.0188,215.6000,143.8989,0,U,39679,999,67623,.10805E-3,.5029E-4,0
ALOS-2,2014-029A,2026-07-17T05:39:32.599872,14.79470570,.0001591,97.9235,294.9698,92.9607,267.1786,0,U,39766,999,65602,.12183E-3,.859E-5,0
YAOGAN-29,2015-069A,2026-07-17T04:49:14.849184,14.83107235,.000059,98.0014,226.8797,10.5016,349.6209,0,U,41038,999,57507,-.42641E-5,-.89E-6,0
ASTRO-H (HITOMI),2016-012A,2026-07-17T03:58:26.582016,15.10637146,.0009624,30.9979,240.5599,195.3017,164.7330,0,U,41337,999,57182,.66596E-4,.1226E-4,0
HXMT (HUIYAN),2017-034A,2026-07-16T23:53:49.878816,15.18698236,.0032083,43.0154,17.0306,332.0044,27.9078,0,U,42758,999,50219,.11653E-3,.2246E-4,0
SAOCOM 1A,2018-076A,2026-07-17T04:16:40.668672,14.82146739,.0001441,97.8881,24.4905,85.1905,274.9473,0,U,43641,999,42054,-.41364E-4,-.381E-5,0
H-2A R/B,2018-084L,2026-07-17T02:24:42.192576,15.46248756,.002044,98.8525,83.5493,293.5341,66.3756,0,U,43682,999,42574,.2561E-3,.12582E-3,0
SAOCOM 1B,2020-059A,2026-07-16T22:32:43.757376,14.82159769,.0001537,97.8884,23.3516,82.2102,277.9286,0,U,46265,999,31789,.74093E-4,.538E-5,0
CSS (TIANHE),2021-035A,2026-07-16T21:09:17.610048,15.58131618,.0002246,41.4696,141.6126,302.3597,57.7023,0,U,48274,999,29780,.19694E-4,.1197E-4,0
COSMOS 2550,2021-056A,2026-07-17T05:10:17.099616,15.33839909,.0008535,67.1437,9.0715,270.1263,89.8913,0,U,48865,999,28332,.88259E-4,.2714E-4,0
CZ-2C R/B,2022-058K,2026-07-16T23:19:03.241056,15.63953565,.0030249,50.1853,8.2910,30.0263,330.2439,0,U,52794,999,23030,.2745E-3,.26568E-3,0
CZ-2C R/B,2022-132E,2026-07-16T12:52:14.364768,15.75115426,.0009201,97.2889,205.9502,335.7404,24.3427,0,U,54039,999,21056,.30258E-3,.45207E-3,0
GSLV R/B,2022-138AN,2026-07-17T04:35:59.762688,14.97387925,.0023309,87.3816,122.9091,45.6485,314.6652,0,U,54149,999,20330,.12127E-3,.1446E-4,0
XRISM,2023-137A,2026-07-17T03:35:53.099232,15.12677853,.0007867,31.0009,165.4775,265.6103,94.3637,0,U,57800,999,15740,.1212E-3,.2273E-4,0
ACS3,2024-077B,2026-07-16T18:14:43.192032,13.95288377,.0127345,97.1749,109.9964,34.8997,326.0437,0,U,59588,999,11216,.49014E-2,.7071E-4,0
SPACEMOBILE-003,2024-163A,2026-07-17T04:26:23.987904,15.20710730,.0004573,52.9669,171.4933,199.9499,160.1317,0,U,61045,999,10233,.66577E-4,.1156E-4,0
SPACEMOBILE-005,2024-163B,2026-07-17T04:02:32.396064,15.20722432,.0008601,52.9760,171.5204,201.6273,158.4359,0,U,61046,999,10232,.11557E-3,.2249E-4,0
SPACEMOBILE-001,2024-163C,2026-07-17T00:50:50.308800,15.20743460,.0007094,52.9725,171.8417,199.2363,160.8365,0,U,61047,999,10230,.2122E-4,.145E-5,0
SPACEMOBILE-002,2024-163D,2026-07-17T03:36:51.191136,15.20743440,.0005763,52.9785,171.3520,198.8824,161.1957,0,U,61048,999,10232,-.30774E-3,-.7183E-4,0
SPACEMOBILE-004,2024-163E,2026-07-16T08:16:06.261888,15.20779499,.0005984,52.9692,174.8353,230.9141,129.1322,0,U,61049,999,10220,.56003E-3,.12194E-3,0
CZ-8A R/B,2025-231K,2026-07-16T14:36:57.666528,14.30162420,.01165729,50.0040,274.1439,327.5851,31.7941,0,U,66004,999,3915,.46054128E-4,-.35E-6,0
SZ-21 MODULE,2025-246C,2026-07-16T23:12:05.816736,15.78939225,.0008647,41.4717,121.4946,232.6437,127.3622,0,U,66515,999,3844,.19673E-3,.35792E-3,0
SPACEMOBILE-006,2025-309A,2026-07-16T09:29:27.795840,15.18656625,.0009991,52.9935,197.8358,219.1469,140.8802,0,U,67232,999,3103,.58828E-4,.913E-5,0
